{"fetched_at":"2026-07-21T17:53:33.243Z","source":"https://celestrak.org/NORAD/elements/gp.php?NAME=ICEYE&FORMAT=JSON","constellation":"iceye","records":[{"OBJECT_NAME":"ICEYE-X72","OBJECT_ID":"2026-067CS","EPOCH":"2026-07-21T00:00:02.000160","CLASSIFICATION_TYPE":"U","MEAN_MOTION":14.97373292,"ECCENTRICITY":0.00008495,"INCLINATION":97.7643,"RA_OF_ASC_NODE":159.93,"ARG_OF_PERICENTER":180.5718,"MEAN_ANOMALY":253.8122,"EPHEMERIS_TYPE":0,"NORAD_CAT_ID":68504,"ELEMENT_SET_NO":999,"REV_AT_EPOCH":573,"BSTAR":-0.0019917974,"MEAN_MOTION_DOT":-0.0002311,"MEAN_MOTION_DDOT":0},{"OBJECT_NAME":"ICEYE-X78","OBJECT_ID":"2026-100R","EPOCH":"2026-07-21T03:35:15.923904","CLASSIFICATION_TYPE":"U","MEAN_MOTION":14.91819184,"ECCENTRICITY":0.000324,"INCLINATION":97.7326,"RA_OF_ASC_NODE":98.9695,"ARG_OF_PERICENTER":42.3797,"MEAN_ANOMALY":317.7671,"EPHEMERIS_TYPE":0,"NORAD_CAT_ID":68995,"ELEMENT_SET_NO":999,"REV_AT_EPOCH":1176,"BSTAR":0.000057655062,"MEAN_MOTION_DOT":0.00000526,"MEAN_MOTION_DDOT":0},{"OBJECT_NAME":"ICEYE-X82","OBJECT_ID":"2026-100S","EPOCH":"2026-07-20T23:19:14.485152","CLASSIFICATION_TYPE":"U","MEAN_MOTION":14.91440509,"ECCENTRICITY":0.00055266,"INCLINATION":97.7321,"RA_OF_ASC_NODE":98.7354,"ARG_OF_PERICENTER":49.5335,"MEAN_ANOMALY":310.6365,"EPHEMERIS_TYPE":0,"NORAD_CAT_ID":68996,"ELEMENT_SET_NO":999,"REV_AT_EPOCH":1173,"BSTAR":0.00014163382,"MEAN_MOTION_DOT":0.00001361,"MEAN_MOTION_DDOT":0}]}
