ICEYE-X72               
1 68504U 26067CS  26202.00002315 -.00023110  00000+0 -19918-2 0  9995
2 68504  97.7643 159.9300 0000849 180.5718 253.8122 14.97373292  5734
ICEYE-X78               
1 68995U 26100R   26202.14948986  .00000526  00000+0  57655-4 0  9991
2 68995  97.7326  98.9695 0003240  42.3797 317.7671 14.91819184 11763
ICEYE-X82               
1 68996U 26100S   26201.97169543  .00001361  00000+0  14163-3 0  9990
2 68996  97.7321  98.7354 0005526  49.5335 310.6365 14.91440509 11735
